[{"OBJECT_NAME":"GAOFEN-1 03","OBJECT_ID":"2018-031B","EPOCH":"2026-03-05T07:35:15.770400","MEAN_MOTION":14.76468099,"ECCENTRICITY":0.00039073,"INCLINATION":98.0643,"RA_OF_ASC_NODE":126.9435,"ARG_OF_PERICENTER":62.5442,"MEAN_ANOMALY":297.6165,"EPHEMERIS_TYPE":0,"CLASSIFICATION_TYPE":"U","NORAD_CAT_ID":43260,"ELEMENT_SET_NO":999,"REV_AT_EPOCH":42736,"BSTAR":0.00018342671,"MEAN_MOTION_DOT":1.225e-5,"MEAN_MOTION_DDOT":0},{"OBJECT_NAME":"GAOFEN-1 04","OBJECT_ID":"2018-031D","EPOCH":"2026-03-05T07:00:15.746688","MEAN_MOTION":14.76470444,"ECCENTRICITY":0.00021015,"INCLINATION":98.0658,"RA_OF_ASC_NODE":127.0981,"ARG_OF_PERICENTER":88.1925,"MEAN_ANOMALY":271.9525,"EPHEMERIS_TYPE":0,"CLASSIFICATION_TYPE":"U","NORAD_CAT_ID":43262,"ELEMENT_SET_NO":999,"REV_AT_EPOCH":42735,"BSTAR":0.00020349142,"MEAN_MOTION_DOT":1.365e-5,"MEAN_MOTION_DDOT":0},{"OBJECT_NAME":"SENTINEL-3B","OBJECT_ID":"2018-039A","EPOCH":"2026-03-05T04:29:19.069728","MEAN_MOTION":14.26742791,"ECCENTRICITY":8.977e-5,"INCLINATION":98.6237,"RA_OF_ASC_NODE":133.1865,"ARG_OF_PERICENTER":127.203,"MEAN_ANOMALY":232.9233,"EPHEMERIS_TYPE":0,"CLASSIFICATION_TYPE":"U","NORAD_CAT_ID":43437,"ELEMENT_SET_NO":999,"REV_AT_EPOCH":40929,"BSTAR":8.5446188e-5,"MEAN_MOTION_DOT":1.63e-6,"MEAN_MOTION_DDOT":0},{"OBJECT_NAME":"GAOFEN-5 01","OBJECT_ID":"2018-043A","EPOCH":"2026-03-05T01:38:05.064288","MEAN_MOTION":14.60517545,"ECCENTRICITY":0.00027909,"INCLINATION":98.4458,"RA_OF_ASC_NODE":33.5387,"ARG_OF_PERICENTER":60.9224,"MEAN_ANOMALY":299.2255,"EPHEMERIS_TYPE":0,"CLASSIFICATION_TYPE":"U","NORAD_CAT_ID":43461,"ELEMENT_SET_NO":999,"REV_AT_EPOCH":41649,"BSTAR":0.00014642815,"MEAN_MOTION_DOT":6.62e-6,"MEAN_MOTION_DDOT":0},{"OBJECT_NAME":"GAOFEN-6","OBJECT_ID":"2018-048A","EPOCH":"2026-03-05T07:46:00.162336","MEAN_MOTION":14.76586085,"ECCENTRICITY":0.00129042,"INCLINATION":97.7883,"RA_OF_ASC_NODE":130.7585,"ARG_OF_PERICENTER":147.8747,"MEAN_ANOMALY":212.3253,"EPHEMERIS_TYPE":0,"CLASSIFICATION_TYPE":"U","NORAD_CAT_ID":43484,"ELEMENT_SET_NO":999,"REV_AT_EPOCH":41806,"BSTAR":0.0001227664,"MEAN_MOTION_DOT":8.09e-6,"MEAN_MOTION_DDOT":0},{"OBJECT_NAME":"GAOFEN-11 01","OBJECT_ID":"2018-063A","EPOCH":"2026-03-05T06:59:07.521792","MEAN_MOTION":15.52095594,"ECCENTRICITY":0.00041489,"INCLINATION":97.1424,"RA_OF_ASC_NODE":131.6363,"ARG_OF_PERICENTER":19.0839,"MEAN_ANOMALY":341.0569,"EPHEMERIS_TYPE":0,"CLASSIFICATION_TYPE":"U","NORAD_CAT_ID":43585,"ELEMENT_SET_NO":999,"REV_AT_EPOCH":42421,"BSTAR":0.00040455088,"MEAN_MOTION_DOT":0.00024373,"MEAN_MOTION_DDOT":0},{"OBJECT_NAME":"ICESAT-2","OBJECT_ID":"2018-070A","EPOCH":"2026-03-05T05:45:30.112704","MEAN_MOTION":15.28290609,"ECCENTRICITY":0.00032791,"INCLINATION":91.9986,"RA_OF_ASC_NODE":262.9716,"ARG_OF_PERICENTER":130.7015,"MEAN_ANOMALY":229.452,"EPHEMERIS_TYPE":0,"CLASSIFICATION_TYPE":"U","NORAD_CAT_ID":43613,"ELEMENT_SET_NO":999,"REV_AT_EPOCH":41658,"BSTAR":0.00015165208,"MEAN_MOTION_DOT":4.179e-5,"MEAN_MOTION_DDOT":0},{"OBJECT_NAME":"HYSIS","OBJECT_ID":"2018-096A","EPOCH":"2026-03-05T08:06:14.319936","MEAN_MOTION":14.7864459,"ECCENTRICITY":0.00017316,"INCLINATION":97.9952,"RA_OF_ASC_NODE":131.85,"ARG_OF_PERICENTER":102.3771,"MEAN_ANOMALY":257.7634,"EPHEMERIS_TYPE":0,"CLASSIFICATION_TYPE":"U","NORAD_CAT_ID":43719,"ELEMENT_SET_NO":999,"REV_AT_EPOCH":39207,"BSTAR":0.00023794782,"MEAN_MOTION_DOT":1.691e-5,"MEAN_MOTION_DDOT":0},{"OBJECT_NAME":"KAZSTSAT","OBJECT_ID":"2018-099AB","EPOCH":"2026-03-04T21:09:16.465248","MEAN_MOTION":14.99607454,"ECCENTRICITY":0.00071223,"INCLINATION":97.4409,"RA_OF_ASC_NODE":100.485,"ARG_OF_PERICENTER":26.324,"MEAN_ANOMALY":333.8345,"EPHEMERIS_TYPE":0,"CLASSIFICATION_TYPE":"U","NORAD_CAT_ID":43783,"ELEMENT_SET_NO":999,"REV_AT_EPOCH":39567,"BSTAR":0.00010714876,"MEAN_MOTION_DOT":1.263e-5,"MEAN_MOTION_DDOT":0},{"OBJECT_NAME":"SAUDISAT 5A","OBJECT_ID":"2018-102A","EPOCH":"2026-03-05T07:59:46.667328","MEAN_MOTION":15.26864022,"ECCENTRICITY":0.00111148,"INCLINATION":97.3196,"RA_OF_ASC_NODE":127.9353,"ARG_OF_PERICENTER":136.2144,"MEAN_ANOMALY":223.9979,"EPHEMERIS_TYPE":0,"CLASSIFICATION_TYPE":"U","NORAD_CAT_ID":43831,"ELEMENT_SET_NO":999,"REV_AT_EPOCH":39982,"BSTAR":0.00030923038,"MEAN_MOTION_DOT":8.104e-5,"MEAN_MOTION_DDOT":0},{"OBJECT_NAME":"SAUDISAT 5B","OBJECT_ID":"2018-102C","EPOCH":"2026-03-05T07:20:25.019232","MEAN_MOTION":15.27175689,"ECCENTRICITY":0.00118078,"INCLINATION":97.3293,"RA_OF_ASC_NODE":130.7928,"ARG_OF_PERICENTER":138.8602,"MEAN_ANOMALY":221.3529,"EPHEMERIS_TYPE":0,"CLASSIFICATION_TYPE":"U","NORAD_CAT_ID":43833,"ELEMENT_SET_NO":999,"REV_AT_EPOCH":39993,"BSTAR":0.00028452434,"MEAN_MOTION_DOT":7.523e-5,"MEAN_MOTION_DDOT":0},{"OBJECT_NAME":"GAOFEN-10R","OBJECT_ID":"2019-066A","EPOCH":"2026-03-05T07:31:07.868928","MEAN_MOTION":14.83134859,"ECCENTRICITY":0.00080396,"INCLINATION":98.0395,"RA_OF_ASC_NODE":17.2142,"ARG_OF_PERICENTER":118.1422,"MEAN_ANOMALY":242.0605,"EPHEMERIS_TYPE":0,"CLASSIFICATION_TYPE":"U","NORAD_CAT_ID":44622,"ELEMENT_SET_NO":999,"REV_AT_EPOCH":34698,"BSTAR":0.00026329976,"MEAN_MOTION_DOT":2.093e-5,"MEAN_MOTION_DDOT":0},{"OBJECT_NAME":"CARTOSAT-3","OBJECT_ID":"2019-081A","EPOCH":"2026-03-05T06:57:22.112064","MEAN_MOTION":15.19345925,"ECCENTRICITY":0.00136946,"INCLINATION":97.4436,"RA_OF_ASC_NODE":127.7626,"ARG_OF_PERICENTER":152.9468,"MEAN_ANOMALY":207.2483,"EPHEMERIS_TYPE":0,"CLASSIFICATION_TYPE":"U","NORAD_CAT_ID":44804,"ELEMENT_SET_NO":999,"REV_AT_EPOCH":34769,"BSTAR":0.00017798441,"MEAN_MOTION_DOT":3.701e-5,"MEAN_MOTION_DDOT":0},{"OBJECT_NAME":"GAOFEN-12 01","OBJECT_ID":"2019-082A","EPOCH":"2026-03-05T06:16:33.840192","MEAN_MOTION":14.80358736,"ECCENTRICITY":0.00019766,"INCLINATION":97.8142,"RA_OF_ASC_NODE":73.3762,"ARG_OF_PERICENTER":62.0797,"MEAN_ANOMALY":298.0615,"EPHEMERIS_TYPE":0,"CLASSIFICATION_TYPE":"U","NORAD_CAT_ID":44819,"ELEMENT_SET_NO":999,"REV_AT_EPOCH":33871,"BSTAR":9.3888295e-5,"MEAN_MOTION_DOT":6.66e-6,"MEAN_MOTION_DDOT":0},{"OBJECT_NAME":"CSG-1","OBJECT_ID":"2019-092A","EPOCH":"2026-03-05T06:54:11.678688","MEAN_MOTION":14.82166431,"ECCENTRICITY":0.00013115,"INCLINATION":97.8863,"RA_OF_ASC_NODE":249.3892,"ARG_OF_PERICENTER":87.1598,"MEAN_ANOMALY":272.9765,"EPHEMERIS_TYPE":0,"CLASSIFICATION_TYPE":"U","NORAD_CAT_ID":44873,"ELEMENT_SET_NO":999,"REV_AT_EPOCH":33608,"BSTAR":0.00011558924,"MEAN_MOTION_DOT":8.68e-6,"MEAN_MOTION_DDOT":0},{"OBJECT_NAME":"NEMO-HD","OBJECT_ID":"2020-061F","EPOCH":"2026-03-05T06:33:33.282432","MEAN_MOTION":15.42382879,"ECCENTRICITY":0.00025385,"INCLINATION":97.2051,"RA_OF_ASC_NODE":127.372,"ARG_OF_PERICENTER":83.822,"MEAN_ANOMALY":276.3317,"EPHEMERIS_TYPE":0,"CLASSIFICATION_TYPE":"U","NORAD_CAT_ID":46277,"ELEMENT_SET_NO":999,"REV_AT_EPOCH":30595,"BSTAR":0.00030563012,"MEAN_MOTION_DOT":0.00013118,"MEAN_MOTION_DDOT":0},{"OBJECT_NAME":"SENTINEL-6A","OBJECT_ID":"2020-086A","EPOCH":"2026-03-05T05:52:06.672288","MEAN_MOTION":12.80929583,"ECCENTRICITY":0.0007815,"INCLINATION":66.0446,"RA_OF_ASC_NODE":350.9437,"ARG_OF_PERICENTER":270.8309,"MEAN_ANOMALY":89.1811,"EPHEMERIS_TYPE":0,"CLASSIFICATION_TYPE":"U","NORAD_CAT_ID":46984,"ELEMENT_SET_NO":999,"REV_AT_EPOCH":24701,"BSTAR":4.8802056e-5,"MEAN_MOTION_DOT":-5.0e-7,"MEAN_MOTION_DDOT":0}]
