GAOFEN-1 03             
1 43260U 18031B   26064.31615475  .00001225  00000+0  18343-3 0  9999
2 43260  98.0643 126.9435 0003907  62.5442 297.6165 14.76468099427361
GAOFEN-1 04             
1 43262U 18031D   26064.29184892  .00001365  00000+0  20349-3 0  9996
2 43262  98.0658 127.0981 0002101  88.1925 271.9525 14.76470444427353
SENTINEL-3B             
1 43437U 18039A   26064.18702627  .00000163  00000+0  85446-4 0  9993
2 43437  98.6237 133.1865 0000897 127.2030 232.9233 14.26742791409295
GAOFEN-5 01             
1 43461U 18043A   26064.06811417  .00000662  00000+0  14643-3 0  9994
2 43461  98.4458  33.5387 0002790  60.9224 299.2255 14.60517545416494
GAOFEN-6                
1 43484U 18048A   26064.32361299  .00000809  00000+0  12277-3 0  9995
2 43484  97.7883 130.7585 0012904 147.8747 212.3253 14.76586085418067
GAOFEN-11 01            
1 43585U 18063A   26064.29105928  .00024373  00000+0  40455-3 0  9996
2 43585  97.1424 131.6363 0004148  19.0839 341.0569 15.52095594424210
ICESAT-2                
1 43613U 18070A   26064.23993186  .00004179  00000+0  15165-3 0  9993
2 43613  91.9986 262.9716 0003279 130.7015 229.4520 15.28290609416582
HYSIS                   
1 43719U 18096A   26064.33766574  .00001691  00000+0  23795-3 0  9992
2 43719  97.9952 131.8500 0001731 102.3771 257.7634 14.78644590392071
KAZSTSAT                
1 43783U 18099AB  26063.88144057  .00001263  00000+0  10715-3 0  9994
2 43783  97.4409 100.4850 0007122  26.3240 333.8345 14.99607454395675
SAUDISAT 5A             
1 43831U 18102A   26064.33317902  .00008104  00000+0  30923-3 0  9999
2 43831  97.3196 127.9353 0011114 136.2144 223.9979 15.26864022399823
SAUDISAT 5B             
1 43833U 18102C   26064.30584513  .00007523  00000+0  28452-3 0  9990
2 43833  97.3293 130.7928 0011807 138.8602 221.3529 15.27175689399939
GAOFEN-10R              
1 44622U 19066A   26064.31328552  .00002093  00000+0  26330-3 0  9997
2 44622  98.0395  17.2142 0008039 118.1422 242.0605 14.83134859346985
CARTOSAT-3              
1 44804U 19081A   26064.28983926  .00003701  00000+0  17798-3 0  9999
2 44804  97.4436 127.7626 0013694 152.9468 207.2483 15.19345925347693
GAOFEN-12 01            
1 44819U 19082A   26064.26150278  .00000666  00000+0  93888-4 0  9992
2 44819  97.8142  73.3762 0001976  62.0797 298.0615 14.80358736338719
CSG-1                   
1 44873U 19092A   26064.28763517  .00000868  00000+0  11559-3 0  9999
2 44873  97.8863 249.3892 0001311  87.1598 272.9765 14.82166431336084
NEMO-HD                 
1 46277U 20061F   26064.27330188  .00013118  00000+0  30563-3 0  9998
2 46277  97.2051 127.3720 0002538  83.8220 276.3317 15.42382879305955
SENTINEL-6A             
1 46984U 20086A   26064.24452167 -.00000050  00000+0  48802-4 0  9997
2 46984  66.0446 350.9437 0007815 270.8309  89.1811 12.80929583247019
